      2.10          N: GNSS NAV DATA                        RINEX VERSION / TYPE
fic2rin                                 10/27/2020 00:17:28 PGM / RUN BY / DATE
                                                            END OF HEADER
13 20 10 26  4  0  0.0 5.840277299285e-05 3.751665644813e-12 0.000000000000e+00
    4.100000000000e+01-1.387500000000e+01 4.186245802512e-09 2.063983280617e-01
   -7.487833499908e-07 4.704599152319e-03 1.070089638233e-05 5.153692249298e+03
    1.008000000000e+05-2.048909664154e-08 2.535781718196e+00 5.215406417847e-08
    9.681641178188e-01 1.789687500000e+02 1.048838448377e+00-7.827111744907e-09
    1.557207721095e-10 1.000000000000e+00 2.129000000000e+03 0.000000000000e+00
    2.400000000000e+00 0.000000000000e+00-1.164153218269e-08 4.100000000000e+01
    9.360000000000e+04 4.000000000000e+00
10 20 10 26  4  0  0.0-4.889233969152e-04-9.322320693173e-12 0.000000000000e+00
    9.000000000000e+01-6.587500000000e+01 4.391611499675e-09 2.983867394785e+00
   -3.408640623093e-06 6.059092120267e-03 5.669891834259e-06 5.153668966293e+03
    1.008000000000e+05-4.470348358154e-08 1.356761620487e+00-6.332993507385e-08
    9.666475896436e-01 2.733125000000e+02-2.662973941245e+00-8.013190924423e-09
   -1.135761594744e-10 1.000000000000e+00 2.129000000000e+03 0.000000000000e+00
    2.400000000000e+00 0.000000000000e+00 2.328306436539e-09 9.000000000000e+01
    9.360000000000e+04 4.000000000000e+00
 8 20 10 26  4  0  0.0-5.276128649712e-05-1.364242052659e-12 0.000000000000e+00
    1.030000000000e+02 2.515625000000e+01 4.223390206869e-09 9.940080066633e-01
    1.398846507072e-06 5.625060759485e-03 9.469687938690e-06 5.153745420456e+03
    1.008000000000e+05 8.568167686462e-08-7.508459796574e-01 4.656612873077e-08
    9.689734114148e-01 1.969687500000e+02-6.846343673695e-02-7.931401803292e-09
   -2.242950570751e-10 1.000000000000e+00 2.129000000000e+03 0.000000000000e+00
    3.400000000000e+00 0.000000000000e+00 5.122274160385e-09 1.030000000000e+02
    9.360000000000e+04 4.000000000000e+00
21 20 10 26  4  0  0.0 6.163353100419e-05 3.865352482535e-12 0.000000000000e+00
    2.600000000000e+01 2.993750000000e+01 4.746983445200e-09 1.422018779670e+00
    9.220093488693e-07 2.384882315528e-02 4.831701517105e-06 5.155002784729e+03
    1.008000000000e+05 3.911554813385e-07 2.423579413982e-01-5.178153514862e-07
    9.551161569017e-01 2.777187500000e+02-1.272978618269e+00-8.258915445550e-09
    1.535778257043e-10 1.000000000000e+00 2.129000000000e+03 0.000000000000e+00
    2.400000000000e+00 0.000000000000e+00-1.024454832077e-08 2.600000000000e+01
    9.360000000000e+04 4.000000000000e+00
11 20 10 26  4  0  0.0-1.265970058739e-04 1.057287590811e-11 0.000000000000e+00
    6.600000000000e+01 6.834375000000e+01 5.446298288756e-09-1.860580458724e+00
    3.637745976448e-06 1.572970184498e-02 7.117167115211e-06 5.153730537415e+03
    1.008000000000e+05-1.955777406693e-07-1.638471189245e-01 3.408640623093e-07
    9.139632092534e-01 2.196562500000e+02 2.060736159853e+00-8.598572450771e-09
    1.171477368163e-10 1.000000000000e+00 2.129000000000e+03 0.000000000000e+00
    2.400000000000e+00 0.000000000000e+00-1.257285475731e-08 6.600000000000e+01
    9.360000000000e+04 4.000000000000e+00
12 20 10 26  4  0  0.0 4.907557740808e-05-5.115907697473e-12 0.000000000000e+00
    9.700000000000e+01-2.062500000000e+01 4.462328731046e-09-2.670674294361e+00
   -1.015141606331e-06 7.940102485009e-03 6.292015314102e-06 5.153608623505e+03
    1.008000000000e+05 1.341104507446e-07-1.711240614166e+00-5.960464477539e-08
    9.760536145394e-01 2.654062500000e+02 1.165293038515e+00-7.933187591963e-09
   -2.653681965077e-10 1.000000000000e+00 2.129000000000e+03 0.000000000000e+00
    2.400000000000e+00 0.000000000000e+00-1.257285475731e-08 9.700000000000e+01
    9.360000000000e+04 4.000000000000e+00
31 20 10 26  4  0  0.0-7.733609527349e-05-2.387423592154e-12 0.000000000000e+00
    9.100000000000e+01 4.940625000000e+01 4.860916762409e-09-2.345020310823e+00
    2.361834049225e-06 9.803426451981e-03 6.945803761482e-06 5.153679025650e+03
    1.008000000000e+05-8.009374141693e-08-2.803487313460e+00-2.011656761169e-07
    9.571976040595e-01 2.477187500000e+02 1.827492844698e-01-8.143553497405e-09
    3.453715289676e-10 1.000000000000e+00 2.129000000000e+03 0.000000000000e+00
    2.400000000000e+00 0.000000000000e+00-1.303851604462e-08 9.100000000000e+01
    9.360000000000e+04 4.000000000000e+00
27 20 10 26  4  0  0.0-4.268619231880e-04-8.526512829121e-12 0.000000000000e+00
    6.700000000000e+01 2.203125000000e+01 4.108028258723e-09 8.728802476060e-01
    1.322478055954e-06 8.455439121462e-03 9.307637810707e-06 5.153676746368e+03
    1.008000000000e+05-9.313225746155e-09-7.353395029847e-01 9.499490261078e-08
    9.774718828960e-01 2.079375000000e+02 5.701854174370e-01-7.919258440330e-09
   -2.421529437849e-10 1.000000000000e+00 2.129000000000e+03 0.000000000000e+00
    2.400000000000e+00 0.000000000000e+00 1.862645149231e-09 6.700000000000e+01
    9.360000000000e+04 4.000000000000e+00
30 20 10 26  4  0  0.0-3.241701051593e-04-6.821210263297e-12 0.000000000000e+00
    4.900000000000e+01 5.253125000000e+01 5.272005314468e-09-1.994248633900e+00
    2.469867467880e-06 4.758639610372e-03 6.582587957382e-06 5.153572166443e+03
    1.008000000000e+05 3.166496753693e-08-2.799293554498e+00-7.450580596924e-08
    9.380789778405e-01 2.416875000000e+02-2.814333668979e+00-8.381063390645e-09
    3.718012012981e-10 1.000000000000e+00 2.129000000000e+03 0.000000000000e+00
    2.400000000000e+00 0.000000000000e+00 3.725290298462e-09 4.900000000000e+01
    9.360000000000e+04 4.000000000000e+00
19 20 10 26  4  0  0.0-8.685467764735e-05 5.002220859751e-12 0.000000000000e+00
    6.700000000000e+01 3.443750000000e+01 3.855517740647e-09-2.943627956091e+00
    1.844018697739e-06 9.079247247428e-03 1.039542257786e-05 5.153606393814e+03
    1.008000000000e+05 1.545995473862e-07-6.305960299644e-01 1.229345798492e-07
    9.818764190940e-01 1.875000000000e+02 1.739523311797e+00-7.617460154934e-09
   -3.750156209059e-11 1.000000000000e+00 2.129000000000e+03 0.000000000000e+00
    2.400000000000e+00 0.000000000000e+00-1.536682248116e-08 6.700000000000e+01
    9.360000000000e+04 4.000000000000e+00
20 20 10 26  4  0  0.0 5.262675695121e-04-1.136868377216e-13 0.000000000000e+00
    9.000000000000e+01-5.556250000000e+01 5.129499378524e-09-1.830441600394e+00
   -2.875924110413e-06 5.782936816104e-03 4.822388291359e-06 5.153662614822e+03
    1.008000000000e+05-9.872019290924e-08 1.220842323063e+00-4.284083843231e-08
    9.353075161123e-01 2.745625000000e+02 2.739227811742e+00-8.499639758398e-09
   -1.500062483624e-11 1.000000000000e+00 2.129000000000e+03 0.000000000000e+00
    2.400000000000e+00 0.000000000000e+00-8.381903171539e-09 9.000000000000e+01
    9.360000000000e+04 4.000000000000e+00
18 20 10 26  4  0  0.0 3.125439397991e-04 5.456968210638e-12 0.000000000000e+00
    5.100000000000e+01 3.187500000000e+01 4.423041380284e-09-9.931856375055e-01
    1.618638634682e-06 1.137864659540e-03 5.247071385384e-06 5.153708194733e+03
    1.008000000000e+05-2.421438694000e-08 3.352489633221e-01-2.421438694000e-08
    9.657780706360e-01 2.820000000000e+02 2.856602590518e+00-8.131052976708e-09
    1.792931825664e-10 1.000000000000e+00 2.129000000000e+03 0.000000000000e+00
    2.400000000000e+00 0.000000000000e+00-8.381903171539e-09 5.100000000000e+01
    9.360000000000e+04 4.000000000000e+00
17 20 10 26  4  0  0.0 3.450363874435e-04 5.343281372916e-12 0.000000000000e+00
    8.500000000000e+01 2.553125000000e+01 3.912305820384e-09 7.241187984316e-01
    1.342967152596e-06 1.357477251440e-02 1.067109405994e-05 5.153781843185e+03
    1.008000000000e+05-1.769512891769e-07-6.759903296877e-01-3.539025783539e-08
    9.835168608193e-01 1.905312500000e+02-1.628489403680e+00-7.979260939675e-09
   -1.567922453121e-10 1.000000000000e+00 2.129000000000e+03 0.000000000000e+00
    2.400000000000e+00 0.000000000000e+00-1.117587089539e-08 8.500000000000e+01
    9.360000000000e+04 4.000000000000e+00
26 20 10 26  4  0  0.0 3.013620153069e-04 6.139089236967e-12 0.000000000000e+00
    5.000000000000e+01-7.531250000000e+00 5.170929675691e-09 2.792003775193e+00
   -3.203749656677e-07 5.155322607607e-03 5.783513188362e-06 5.153696464539e+03
    1.008000000000e+05-1.098960638046e-07-1.820250248889e+00-3.725290298462e-09
    9.444224524945e-01 2.600937500000e+02 1.984797148825e-01-8.308560370603e-09
   -2.464388365953e-10 1.000000000000e+00 2.129000000000e+03 0.000000000000e+00
    2.400000000000e+00 0.000000000000e+00 6.984919309616e-09 5.000000000000e+01
    9.360000000000e+04 4.000000000000e+00
23 20 10 26  4  0  0.0 9.152526035905e-05 5.684341886081e-12 0.000000000000e+00
    7.500000000000e+01-6.128125000000e+01 4.500544608605e-09-1.257205587682e+00
   -3.149732947350e-06 1.088422723114e-03 5.502253770828e-06 5.153624908447e+03
    1.008000000000e+05-1.862645149231e-08 1.334411030798e+00 3.166496753693e-08
    9.615844111533e-01 2.745312500000e+02 2.042007418857e+00-8.164625803722e-09
   -8.571785620706e-11 1.000000000000e+00 2.129000000000e+03 0.000000000000e+00
    2.400000000000e+00 0.000000000000e+00-8.381903171539e-09 3.310000000000e+02
    9.360000000000e+04 4.000000000000e+00
25 20 10 26  4  0  0.0 1.134490594268e-05 6.139089236967e-12 0.000000000000e+00
    1.820000000000e+02-1.684375000000e+01 4.699838624286e-09-2.945974266030e+00
   -9.555369615555e-07 9.230769472197e-03 6.133690476418e-06 5.153715070724e+03
    1.008000000000e+05 4.656612873077e-08-1.782106634912e+00-1.937150955200e-07
    9.633966404228e-01 2.613750000000e+02 9.283903508189e-01-8.063907322679e-09
   -2.610823036973e-10 1.000000000000e+00 2.129000000000e+03 0.000000000000e+00
    2.400000000000e+00 0.000000000000e+00 5.587935447693e-09 1.820000000000e+02
    9.360000000000e+04 4.000000000000e+00
